STARLINK-36406          
1 67923U 26036V   26069.25002315 -.01966802  00000+0 -16649-1 0  9995
2 67923  42.9995 246.2829 0001568 264.4552 320.3444 15.71792519  3738
STARLINK-36714          
1 67924U 26036W   26068.94940428  .00330350  00000+0  15044-2 0  9996
2 67924  42.9991 248.0020 0002247 248.5091 111.5541 15.82128242  3718
STARLINK-36726          
1 67925U 26036X   26067.93853814 -.00192425  00000+0 -93903-3 0  9999
2 67925  42.9988 254.1867 0003330 245.4626 114.5898 15.81838832  3558
STARLINK-36758          
1 67926U 26036Y   26068.94790437  .00332166  00000+0  15123-2 0  9996
2 67926  42.9988 247.9897 0002310 272.2619  87.7988 15.82128251  3716
STARLINK-36728          
1 67927U 26036Z   26068.94640946  .00388356  00000+0  17556-2 0  9990
2 67927  42.9995 247.9769 0001714 283.4072  76.6609 15.82134533  3714
STARLINK-36771          
1 67928U 26036AA  26069.19968531  .00687658  00000+0  29790-2 0  9992
2 67928  42.9990 246.4353 0001485 313.0342  47.0405 15.82280710  3757
STARLINK-36809          
1 67929U 26036AB  26068.94566256  .00295746  00000+0  13544-2 0  9996
2 67929  42.9995 247.9708 0001902 278.9525  81.1131 15.82097621  3717
STARLINK-36865          
1 67930U 26036AC  26068.88102707  .00214751  00000+0  99418-3 0  9990
2 67930  42.9988 248.3448 0002193 259.4238 100.6387 15.82082312  3705
STARLINK-36781          
1 67931U 26036AD  26068.94491080  .00384424  00000+0  17394-2 0  9990
2 67931  42.9991 247.9652 0001910 292.8188  67.2481 15.82125976  3711
STARLINK-36301          
1 67932U 26037A   26069.25002315  .00103722  00000+0  49078-3 0  9991
2 67932  42.9989 195.1439 0001987 258.4957 328.2613 15.81947350  3198
STARLINK-36852          
1 67933U 26037B   26069.25002315  .00047652  00000+0  22794-3 0  9997
2 67933  42.9989 195.1333 0001571 263.7396 327.2719 15.81982835  3280
STARLINK-36861          
1 67934U 26037C   26069.25002315  .00100549  00000+0  47614-3 0  9991
2 67934  42.9986 195.1227 0001811 236.5432 358.7596 15.81942337  3281
STARLINK-36860          
1 67935U 26037D   26069.25002315  .00083877  00000+0  39795-3 0  9997
2 67935  42.9986 195.1119 0001743 240.5648 359.0005 15.81965050  3286
STARLINK-36848          
1 67936U 26037E   26069.25002315  .00022022  00000+0  10701-3 0  9999
2 67936  42.9985 195.0890 0001526 272.9086 335.1990 15.81983069  3283
STARLINK-36370          
1 67937U 26037F   26069.25002315  .00101713  00000+0  48132-3 0  9994
2 67937  42.9987 195.1015 0001789 289.6575 314.1816 15.81952878  3283
STARLINK-36371          
1 67938U 26037G   26069.25002315  .00086989  00000+0  41288-3 0  9997
2 67938  42.9982 195.0783 0001717 242.3865  10.0146 15.81944035  3283
