[{"OBJECT_NAME":"STARLINK-36406","OBJECT_ID":"2026-036V","EPOCH":"2026-03-10T06:00:02.000160","MEAN_MOTION":15.71792519,"ECCENTRICITY":0.00015682,"INCLINATION":42.9995,"RA_OF_ASC_NODE":246.2829,"ARG_OF_PERICENTER":264.4552,"MEAN_ANOMALY":320.3444,"EPHEMERIS_TYPE":0,"CLASSIFICATION_TYPE":"U","NORAD_CAT_ID":67923,"ELEMENT_SET_NO":999,"REV_AT_EPOCH":373,"BSTAR":-0.016648765,"MEAN_MOTION_DOT":-0.01966802,"MEAN_MOTION_DDOT":0},{"OBJECT_NAME":"STARLINK-36714","OBJECT_ID":"2026-036W","EPOCH":"2026-03-09T22:47:08.529792","MEAN_MOTION":15.82128242,"ECCENTRICITY":0.00022475,"INCLINATION":42.9991,"RA_OF_ASC_NODE":248.002,"ARG_OF_PERICENTER":248.5091,"MEAN_ANOMALY":111.5541,"EPHEMERIS_TYPE":0,"CLASSIFICATION_TYPE":"U","NORAD_CAT_ID":67924,"ELEMENT_SET_NO":999,"REV_AT_EPOCH":371,"BSTAR":0.001504352,"MEAN_MOTION_DOT":0.0033035,"MEAN_MOTION_DDOT":0},{"OBJECT_NAME":"STARLINK-36726","OBJECT_ID":"2026-036X","EPOCH":"2026-03-08T22:31:29.695296","MEAN_MOTION":15.81838832,"ECCENTRICITY":0.000333,"INCLINATION":42.9988,"RA_OF_ASC_NODE":254.1867,"ARG_OF_PERICENTER":245.4626,"MEAN_ANOMALY":114.5898,"EPHEMERIS_TYPE":0,"CLASSIFICATION_TYPE":"U","NORAD_CAT_ID":67925,"ELEMENT_SET_NO":999,"REV_AT_EPOCH":355,"BSTAR":-0.00093902522,"MEAN_MOTION_DOT":-0.00192425,"MEAN_MOTION_DDOT":0},{"OBJECT_NAME":"STARLINK-36758","OBJECT_ID":"2026-036Y","EPOCH":"2026-03-09T22:44:58.937568","MEAN_MOTION":15.82128251,"ECCENTRICITY":0.00023108,"INCLINATION":42.9988,"RA_OF_ASC_NODE":247.9897,"ARG_OF_PERICENTER":272.2619,"MEAN_ANOMALY":87.7988,"EPHEMERIS_TYPE":0,"CLASSIFICATION_TYPE":"U","NORAD_CAT_ID":67926,"ELEMENT_SET_NO":999,"REV_AT_EPOCH":371,"BSTAR":0.0015122827,"MEAN_MOTION_DOT":0.00332166,"MEAN_MOTION_DDOT":0},{"OBJECT_NAME":"STARLINK-36728","OBJECT_ID":"2026-036Z","EPOCH":"2026-03-09T22:42:49.777344","MEAN_MOTION":15.82134533,"ECCENTRICITY":0.00017147,"INCLINATION":42.9995,"RA_OF_ASC_NODE":247.9769,"ARG_OF_PERICENTER":283.4072,"MEAN_ANOMALY":76.6609,"EPHEMERIS_TYPE":0,"CLASSIFICATION_TYPE":"U","NORAD_CAT_ID":67927,"ELEMENT_SET_NO":999,"REV_AT_EPOCH":371,"BSTAR":0.0017556203,"MEAN_MOTION_DOT":0.00388356,"MEAN_MOTION_DDOT":0},{"OBJECT_NAME":"STARLINK-36771","OBJECT_ID":"2026-036AA","EPOCH":"2026-03-10T04:47:32.810784","MEAN_MOTION":15.8228071,"ECCENTRICITY":0.00014853,"INCLINATION":42.999,"RA_OF_ASC_NODE":246.4353,"ARG_OF_PERICENTER":313.0342,"MEAN_ANOMALY":47.0405,"EPHEMERIS_TYPE":0,"CLASSIFICATION_TYPE":"U","NORAD_CAT_ID":67928,"ELEMENT_SET_NO":999,"REV_AT_EPOCH":375,"BSTAR":0.0029789761,"MEAN_MOTION_DOT":0.00687658,"MEAN_MOTION_DDOT":0},{"OBJECT_NAME":"STARLINK-36809","OBJECT_ID":"2026-036AB","EPOCH":"2026-03-09T22:41:45.245184","MEAN_MOTION":15.82097621,"ECCENTRICITY":0.00019028,"INCLINATION":42.9995,"RA_OF_ASC_NODE":247.9708,"ARG_OF_PERICENTER":278.9525,"MEAN_ANOMALY":81.1131,"EPHEMERIS_TYPE":0,"CLASSIFICATION_TYPE":"U","NORAD_CAT_ID":67929,"ELEMENT_SET_NO":999,"REV_AT_EPOCH":371,"BSTAR":0.0013544247,"MEAN_MOTION_DOT":0.00295746,"MEAN_MOTION_DDOT":0},{"OBJECT_NAME":"STARLINK-36865","OBJECT_ID":"2026-036AC","EPOCH":"2026-03-09T21:08:40.738848","MEAN_MOTION":15.82082312,"ECCENTRICITY":0.0002193,"INCLINATION":42.9988,"RA_OF_ASC_NODE":248.3448,"ARG_OF_PERICENTER":259.4238,"MEAN_ANOMALY":100.6387,"EPHEMERIS_TYPE":0,"CLASSIFICATION_TYPE":"U","NORAD_CAT_ID":67930,"ELEMENT_SET_NO":999,"REV_AT_EPOCH":370,"BSTAR":0.00099418,"MEAN_MOTION_DOT":0.00214751,"MEAN_MOTION_DDOT":0},{"OBJECT_NAME":"STARLINK-36781","OBJECT_ID":"2026-036AD","EPOCH":"2026-03-09T22:40:40.293120","MEAN_MOTION":15.82125976,"ECCENTRICITY":0.00019107,"INCLINATION":42.9991,"RA_OF_ASC_NODE":247.9652,"ARG_OF_PERICENTER":292.8188,"MEAN_ANOMALY":67.2481,"EPHEMERIS_TYPE":0,"CLASSIFICATION_TYPE":"U","NORAD_CAT_ID":67931,"ELEMENT_SET_NO":999,"REV_AT_EPOCH":371,"BSTAR":0.0017393687,"MEAN_MOTION_DOT":0.00384424,"MEAN_MOTION_DDOT":0},{"OBJECT_NAME":"STARLINK-36301","OBJECT_ID":"2026-037A","EPOCH":"2026-03-10T06:00:02.000160","MEAN_MOTION":15.8194735,"ECCENTRICITY":0.00019874,"INCLINATION":42.9989,"RA_OF_ASC_NODE":195.1439,"ARG_OF_PERICENTER":258.4957,"MEAN_ANOMALY":328.2613,"EPHEMERIS_TYPE":0,"CLASSIFICATION_TYPE":"U","NORAD_CAT_ID":67932,"ELEMENT_SET_NO":999,"REV_AT_EPOCH":319,"BSTAR":0.0004907822,"MEAN_MOTION_DOT":0.00103722,"MEAN_MOTION_DDOT":0},{"OBJECT_NAME":"STARLINK-36852","OBJECT_ID":"2026-037B","EPOCH":"2026-03-10T06:00:02.000160","MEAN_MOTION":15.81982835,"ECCENTRICITY":0.00015717,"INCLINATION":42.9989,"RA_OF_ASC_NODE":195.1333,"ARG_OF_PERICENTER":263.7396,"MEAN_ANOMALY":327.2719,"EPHEMERIS_TYPE":0,"CLASSIFICATION_TYPE":"U","NORAD_CAT_ID":67933,"ELEMENT_SET_NO":999,"REV_AT_EPOCH":328,"BSTAR":0.00022793501,"MEAN_MOTION_DOT":0.00047652,"MEAN_MOTION_DDOT":0},{"OBJECT_NAME":"STARLINK-36861","OBJECT_ID":"2026-037C","EPOCH":"2026-03-10T06:00:02.000160","MEAN_MOTION":15.81942337,"ECCENTRICITY":0.00018117,"INCLINATION":42.9986,"RA_OF_ASC_NODE":195.1227,"ARG_OF_PERICENTER":236.5432,"MEAN_ANOMALY":358.7596,"EPHEMERIS_TYPE":0,"CLASSIFICATION_TYPE":"U","NORAD_CAT_ID":67934,"ELEMENT_SET_NO":999,"REV_AT_EPOCH":328,"BSTAR":0.00047613864,"MEAN_MOTION_DOT":0.00100549,"MEAN_MOTION_DDOT":0},{"OBJECT_NAME":"STARLINK-36860","OBJECT_ID":"2026-037D","EPOCH":"2026-03-10T06:00:02.000160","MEAN_MOTION":15.8196505,"ECCENTRICITY":0.00017436,"INCLINATION":42.9986,"RA_OF_ASC_NODE":195.1119,"ARG_OF_PERICENTER":240.5648,"MEAN_ANOMALY":359.0005,"EPHEMERIS_TYPE":0,"CLASSIFICATION_TYPE":"U","NORAD_CAT_ID":67935,"ELEMENT_SET_NO":999,"REV_AT_EPOCH":328,"BSTAR":0.00039795106,"MEAN_MOTION_DOT":0.00083877,"MEAN_MOTION_DDOT":0},{"OBJECT_NAME":"STARLINK-36848","OBJECT_ID":"2026-037E","EPOCH":"2026-03-10T06:00:02.000160","MEAN_MOTION":15.81983069,"ECCENTRICITY":0.00015266,"INCLINATION":42.9985,"RA_OF_ASC_NODE":195.089,"ARG_OF_PERICENTER":272.9086,"MEAN_ANOMALY":335.199,"EPHEMERIS_TYPE":0,"CLASSIFICATION_TYPE":"U","NORAD_CAT_ID":67936,"ELEMENT_SET_NO":999,"REV_AT_EPOCH":328,"BSTAR":0.00010700928,"MEAN_MOTION_DOT":0.00022022,"MEAN_MOTION_DDOT":0},{"OBJECT_NAME":"STARLINK-36370","OBJECT_ID":"2026-037F","EPOCH":"2026-03-10T06:00:02.000160","MEAN_MOTION":15.81952878,"ECCENTRICITY":0.00017898,"INCLINATION":42.9987,"RA_OF_ASC_NODE":195.1015,"ARG_OF_PERICENTER":289.6575,"MEAN_ANOMALY":314.1816,"EPHEMERIS_TYPE":0,"CLASSIFICATION_TYPE":"U","NORAD_CAT_ID":67937,"ELEMENT_SET_NO":999,"REV_AT_EPOCH":328,"BSTAR":0.00048131715,"MEAN_MOTION_DOT":0.00101713,"MEAN_MOTION_DDOT":0},{"OBJECT_NAME":"STARLINK-36371","OBJECT_ID":"2026-037G","EPOCH":"2026-03-10T06:00:02.000160","MEAN_MOTION":15.81944035,"ECCENTRICITY":0.00017172,"INCLINATION":42.9982,"RA_OF_ASC_NODE":195.0783,"ARG_OF_PERICENTER":242.3865,"MEAN_ANOMALY":10.0146,"EPHEMERIS_TYPE":0,"CLASSIFICATION_TYPE":"U","NORAD_CAT_ID":67938,"ELEMENT_SET_NO":999,"REV_AT_EPOCH":328,"BSTAR":0.00041288071,"MEAN_MOTION_DOT":0.00086989,"MEAN_MOTION_DDOT":0}]
